start=new Date('2022-09-11T00:00:00.000Z').valueOf();
sats=[{"RCS_SIZE":"LARGE","MEAN_ELEMENT_THEORY":"SGP4","ECCENTRICITY":"0.00012990","EPHEMERIS_TYPE":"0","PERIAPSIS":"546.318","FILE":"3567798","EPOCH":"2022-09-10T18:25:33.700224","SEMIMAJOR_AXIS":"6925.352","COUNTRY_CODE":"US","MEAN_ANOMALY":"273.6038","OBJECT_NAME":"STARLINK-2011","RA_OF_ASC_NODE":"29.4624","MEAN_MOTION":"15.06398792","BSTAR":"0.00011788000000","PERIOD":"95.592","TLE_LINE1":"1 47350U 21005B   22253.76775116  .00001475  00000-0  11788-3 0  9996","REV_AT_EPOCH":"9073","CENTER_NAME":"EARTH","NORAD_CAT_ID":"47350","LAUNCH_DATE":"2021-01-20","MEAN_MOTION_DDOT":"0.0000000000000","ARG_OF_PERICENTER":"86.5100","GP_ID":"212268747","SITE":"AFETR","OBJECT_ID":"2021-005B","CLASSIFICATION_TYPE":"U","REF_FRAME":"TEME","TLE_LINE2":"2 47350  53.0561  29.4624 0001299  86.5100 273.6038 15.06398792 90737","TIME_SYSTEM":"UTC","DECAY_DATE":null,"ELEMENT_SET_NO":"999","APOAPSIS":"548.117","MEAN_MOTION_DOT":"0.00001475","INCLINATION":"53.0561","OBJECT_TYPE":"PAYLOAD"},{"CLASSIFICATION_TYPE":"U","OBJECT_ID":"2021-005C","SITE":"AFETR","TLE_LINE2":"2 47351  53.0571 350.5050 0001207  86.0375 274.0752 15.06406826 91915","TIME_SYSTEM":"UTC","REF_FRAME":"TEME","GP_ID":"212242852","ARG_OF_PERICENTER":"86.0375","MEAN_MOTION_DDOT":"0.0000000000000","LAUNCH_DATE":"2021-01-20","INCLINATION":"53.0571","MEAN_MOTION_DOT":"-0.00002672","OBJECT_TYPE":"PAYLOAD","DECAY_DATE":null,"APOAPSIS":"548.029","ELEMENT_SET_NO":"999","FILE":"3567557","PERIAPSIS":"546.357","SEMIMAJOR_AXIS":"6925.328","EPOCH":"2022-09-10T12:44:31.295328","ECCENTRICITY":"0.00012070","RCS_SIZE":"LARGE","MEAN_ELEMENT_THEORY":"SGP4","EPHEMERIS_TYPE":"0","CENTER_NAME":"EARTH","TLE_LINE1":"1 47351U 21005C   22253.53091777 -.00002672  00000-0 -16051-3 0  9996","REV_AT_EPOCH":"9191","PERIOD":"95.592","BSTAR":"-0.00016051000000","NORAD_CAT_ID":"47351","MEAN_MOTION":"15.06406826","OBJECT_NAME":"STARLINK-2017","RA_OF_ASC_NODE":"350.5050","COUNTRY_CODE":"US","MEAN_ANOMALY":"274.0752"},{"INCLINATION":"53.0564","MEAN_MOTION_DOT":"0.00000709","OBJECT_TYPE":"PAYLOAD","DECAY_DATE":null,"APOAPSIS":"548.207","ELEMENT_SET_NO":"999","CLASSIFICATION_TYPE":"U","OBJECT_ID":"2021-005D","SITE":"AFETR","TLE_LINE2":"2 47352  53.0564  29.2481 0001438  97.9411 262.1741 15.06400949 90739","TIME_SYSTEM":"UTC","REF_FRAME":"TEME","ARG_OF_PERICENTER":"97.9411","GP_ID":"212267746","MEAN_MOTION_DDOT":"0.0000000000000","LAUNCH_DATE":"2021-01-20","CENTER_NAME":"EARTH","TLE_LINE1":"1 47352U 21005D   22253.81567821  .00000709  00000-0  66507-4 0  9995","REV_AT_EPOCH":"9073","BSTAR":"0.00006650700000","PERIOD":"95.592","NORAD_CAT_ID":"47352","MEAN_MOTION":"15.06400949","OBJECT_NAME":"STARLINK-2034","RA_OF_ASC_NODE":"29.2481","COUNTRY_CODE":"US","MEAN_ANOMALY":"262.1741","FILE":"3567798","PERIAPSIS":"546.215","SEMIMAJOR_AXIS":"6925.346","EPOCH":"2022-09-10T19:34:34.597344","ECCENTRICITY":"0.00014380","MEAN_ELEMENT_THEORY":"SGP4","RCS_SIZE":"LARGE","EPHEMERIS_TYPE":"0"},{"MEAN_MOTION":"15.06419884","RA_OF_ASC_NODE":"335.6411","OBJECT_NAME":"STARLINK-2045","MEAN_ANOMALY":"277.5858","COUNTRY_CODE":"US","CENTER_NAME":"EARTH","REV_AT_EPOCH":"9146","TLE_LINE1":"1 47353U 21005E   22253.50559717  .00003200  00000-0  23351-3 0  9995","PERIOD":"95.591","BSTAR":"0.00023351000000","NORAD_CAT_ID":"47353","ECCENTRICITY":"0.00014590","MEAN_ELEMENT_THEORY":"SGP4","RCS_SIZE":"LARGE","EPHEMERIS_TYPE":"0","FILE":"3567066","PERIAPSIS":"546.142","SEMIMAJOR_AXIS":"6925.288","EPOCH":"2022-09-10T12:08:03.595488","DECAY_DATE":null,"APOAPSIS":"548.163","ELEMENT_SET_NO":"999","INCLINATION":"53.0552","MEAN_MOTION_DOT":"0.00003200","OBJECT_TYPE":"PAYLOAD","GP_ID":"212226609","ARG_OF_PERICENTER":"82.5296","MEAN_MOTION_DDOT":"0.0000000000000","LAUNCH_DATE":"2021-01-20","CLASSIFICATION_TYPE":"U","SITE":"AFETR","OBJECT_ID":"2021-005E","TLE_LINE2":"2 47353  53.0552 335.6411 0001459  82.5296 277.5858 15.06419884 91466","TIME_SYSTEM":"UTC","REF_FRAME":"TEME"},{"SEMIMAJOR_AXIS":"6925.371","EPOCH":"2022-09-10T12:26:38.578848","PERIAPSIS":"546.277","FILE":"3567066","EPHEMERIS_TYPE":"0","RCS_SIZE":"LARGE","MEAN_ELEMENT_THEORY":"SGP4","ECCENTRICITY":"0.00013850","NORAD_CAT_ID":"47354","BSTAR":"0.00004025100000","PERIOD":"95.593","CENTER_NAME":"EARTH","REV_AT_EPOCH":"9118","TLE_LINE1":"1 47354U 21005F   22253.51850207  .00000318  00000-0  40251-4 0  9991","RA_OF_ASC_NODE":"355.5668","OBJECT_NAME":"STARLINK-2046","MEAN_ANOMALY":"280.1365","COUNTRY_CODE":"US","MEAN_MOTION":"15.06392742","TLE_LINE2":"2 47354  53.0558 355.5668 0001385  79.9780 280.1365 15.06392742 91189","TIME_SYSTEM":"UTC","REF_FRAME":"TEME","OBJECT_ID":"2021-005F","SITE":"AFETR","CLASSIFICATION_TYPE":"U","LAUNCH_DATE":"2021-01-20","GP_ID":"212227351","ARG_OF_PERICENTER":"79.9780","MEAN_MOTION_DDOT":"0.0000000000000","OBJECT_TYPE":"PAYLOAD","INCLINATION":"53.0558","MEAN_MOTION_DOT":"0.00000318","APOAPSIS":"548.195","ELEMENT_SET_NO":"999","DECAY_DATE":null},{"CLASSIFICATION_TYPE":"U","SITE":"AFETR","OBJECT_ID":"2021-005G","TLE_LINE2":"2 47355  53.0556 340.1694 0001293  78.2238 281.8896 15.06399448 91407","TIME_SYSTEM":"UTC","REF_FRAME":"TEME","GP_ID":"212269498","ARG_OF_PERICENTER":"78.2238","MEAN_MOTION_DDOT":"0.0000000000000","LAUNCH_DATE":"2021-01-20","INCLINATION":"53.0556","MEAN_MOTION_DOT":"0.00001346","OBJECT_TYPE":"PAYLOAD","DECAY_DATE":null,"APOAPSIS":"548.111","ELEMENT_SET_NO":"999","FILE":"3567798","PERIAPSIS":"546.320","SEMIMAJOR_AXIS":"6925.350","EPOCH":"2022-09-10T14:33:21.377088","ECCENTRICITY":"0.00012930","MEAN_ELEMENT_THEORY":"SGP4","RCS_SIZE":"LARGE","EPHEMERIS_TYPE":"0","CENTER_NAME":"EARTH","TLE_LINE1":"1 47355U 21005G   22253.60649742  .00001346  00000-0  10922-3 0  9995","REV_AT_EPOCH":"9140","BSTAR":"0.00010922000000","PERIOD":"95.592","NORAD_CAT_ID":"47355","MEAN_MOTION":"15.06399448","OBJECT_NAME":"STARLINK-2047","RA_OF_ASC_NODE":"340.1694","COUNTRY_CODE":"US","MEAN_ANOMALY":"281.8896"},{"DECAY_DATE":null,"APOAPSIS":"548.070","ELEMENT_SET_NO":"999","INCLINATION":"53.0556","MEAN_MOTION_DOT":"0.00000078","OBJECT_TYPE":"PAYLOAD","GP_ID":"212268246","ARG_OF_PERICENTER":"72.9170","MEAN_MOTION_DDOT":"0.0000000000000","LAUNCH_DATE":"2021-01-20","CLASSIFICATION_TYPE":"U","SITE":"AFETR","OBJECT_ID":"2021-005H","TLE_LINE2":"2 47356  53.0556 359.6750 0001244  72.9170 287.1955 15.06401804 91144","TIME_SYSTEM":"UTC","REF_FRAME":"TEME","MEAN_MOTION":"15.06401804","RA_OF_ASC_NODE":"359.6750","OBJECT_NAME":"STARLINK-2049","COUNTRY_CODE":"US","MEAN_ANOMALY":"287.1955","CENTER_NAME":"EARTH","REV_AT_EPOCH":"9114","TLE_LINE1":"1 47356U 21005H   22253.71891591  .00000078  00000-0  24140-4 0  9998","PERIOD":"95.592","BSTAR":"0.00002414000000","NORAD_CAT_ID":"47356","ECCENTRICITY":"0.00012440","RCS_SIZE":"LARGE","MEAN_ELEMENT_THEORY":"SGP4","EPHEMERIS_TYPE":"0","FILE":"3567798","PERIAPSIS":"546.347","SEMIMAJOR_AXIS":"6925.343","EPOCH":"2022-09-10T17:15:14.334624"},{"EPHEMERIS_TYPE":"0","ECCENTRICITY":"0.00021400","RCS_SIZE":"LARGE","MEAN_ELEMENT_THEORY":"SGP4","SEMIMAJOR_AXIS":"6925.730","EPOCH":"2022-09-10T19:02:45.939264","FILE":"3567798","PERIAPSIS":"546.113","MEAN_MOTION":"15.06275456","RA_OF_ASC_NODE":"29.3406","OBJECT_NAME":"STARLINK-2050","COUNTRY_CODE":"US","MEAN_ANOMALY":"269.0670","NORAD_CAT_ID":"47357","CENTER_NAME":"EARTH","TLE_LINE1":"1 47357U 21005J   22253.79358726  .00027095  00000-0  18370-2 0  9999","REV_AT_EPOCH":"9073","BSTAR":"0.00183700000000","PERIOD":"95.600","ARG_OF_PERICENTER":"91.0564","GP_ID":"212268496","MEAN_MOTION_DDOT":"0.0000000000000","LAUNCH_DATE":"2021-01-20","TLE_LINE2":"2 47357  53.0571  29.3406 0002140  91.0564 269.0670 15.06275456 90735","TIME_SYSTEM":"UTC","REF_FRAME":"TEME","CLASSIFICATION_TYPE":"U","SITE":"AFETR","OBJECT_ID":"2021-005J","APOAPSIS":"549.077","ELEMENT_SET_NO":"999","DECAY_DATE":null,"OBJECT_TYPE":"PAYLOAD","INCLINATION":"53.0571","MEAN_MOTION_DOT":"0.00027095"},{"EPHEMERIS_TYPE":"0","RCS_SIZE":"LARGE","MEAN_ELEMENT_THEORY":"SGP4","ECCENTRICITY":"0.00014630","EPOCH":"2022-09-10T19:05:20.429376","SEMIMAJOR_AXIS":"6925.335","PERIAPSIS":"546.186","FILE":"3567798","MEAN_ANOMALY":"276.3354","COUNTRY_CODE":"US","RA_OF_ASC_NODE":"359.3352","OBJECT_NAME":"STARLINK-2055","MEAN_MOTION":"15.06404548","NORAD_CAT_ID":"47358","PERIOD":"95.592","BSTAR":"0.00003736200000","TLE_LINE1":"1 47358U 21005K   22253.79537534  .00000275  00000-0  37362-4 0  9991","REV_AT_EPOCH":"9115","CENTER_NAME":"EARTH","LAUNCH_DATE":"2021-01-20","MEAN_MOTION_DDOT":"0.0000000000000","GP_ID":"212268748","ARG_OF_PERICENTER":"83.7801","REF_FRAME":"TEME","TLE_LINE2":"2 47358  53.0553 359.3352 0001463  83.7801 276.3354 15.06404548 91154","TIME_SYSTEM":"UTC","OBJECT_ID":"2021-005K","SITE":"AFETR","CLASSIFICATION_TYPE":"U","ELEMENT_SET_NO":"999","APOAPSIS":"548.213","DECAY_DATE":null,"OBJECT_TYPE":"PAYLOAD","MEAN_MOTION_DOT":"0.00000275","INCLINATION":"53.0553"},{"NORAD_CAT_ID":"47359","PERIOD":"95.592","BSTAR":"0.00012019000000","TLE_LINE1":"1 47359U 21005L   22253.74057075  .00001509  00000-0  12019-3 0  9996","REV_AT_EPOCH":"9079","CENTER_NAME":"EARTH","MEAN_ANOMALY":"275.0113","COUNTRY_CODE":"US","OBJECT_NAME":"STARLINK-2069","RA_OF_ASC_NODE":"24.5703","MEAN_MOTION":"15.06403409","EPOCH":"2022-09-10T17:46:25.312800","SEMIMAJOR_AXIS":"6925.338","PERIAPSIS":"546.207","FILE":"3567798","EPHEMERIS_TYPE":"0","MEAN_ELEMENT_THEORY":"SGP4","RCS_SIZE":"LARGE","ECCENTRICITY":"0.00014380","OBJECT_TYPE":"PAYLOAD","MEAN_MOTION_DOT":"0.00001509","INCLINATION":"53.0569","ELEMENT_SET_NO":"999","APOAPSIS":"548.199","DECAY_DATE":null,"REF_FRAME":"TEME","TIME_SYSTEM":"UTC","TLE_LINE2":"2 47359  53.0569  24.5703 0001438  85.1040 275.0113 15.06403409 90799","OBJECT_ID":"2021-005L","SITE":"AFETR","CLASSIFICATION_TYPE":"U","LAUNCH_DATE":"2021-01-20","MEAN_MOTION_DDOT":"0.0000000000000","ARG_OF_PERICENTER":"85.1040","GP_ID":"212268999"}];
